[{"OBJECT_NAME":"STARLINK-11101 [DTC]","OBJECT_ID":"2024-088H","EPOCH":"2026-03-09T22:41:33.842976","MEAN_MOTION":15.69698472,"ECCENTRICITY":0.00013325,"INCLINATION":53.1575,"RA_OF_ASC_NODE":324.9125,"ARG_OF_PERICENTER":126.1525,"MEAN_ANOMALY":233.9616,"EPHEMERIS_TYPE":0,"CLASSIFICATION_TYPE":"U","NORAD_CAT_ID":59715,"ELEMENT_SET_NO":999,"REV_AT_EPOCH":10631,"BSTAR":7.4706201e-5,"MEAN_MOTION_DOT":8.467e-5,"MEAN_MOTION_DDOT":0},{"OBJECT_NAME":"CZ-2C R\/B","OBJECT_ID":"2021-039E","EPOCH":"2026-03-09T09:27:45.017856","MEAN_MOTION":15.64132714,"ECCENTRICITY":0.00310654,"INCLINATION":34.9801,"RA_OF_ASC_NODE":125.6229,"ARG_OF_PERICENTER":235.3635,"MEAN_ANOMALY":124.4161,"EPHEMERIS_TYPE":0,"CLASSIFICATION_TYPE":"U","NORAD_CAT_ID":48427,"ELEMENT_SET_NO":999,"REV_AT_EPOCH":26989,"BSTAR":0.00058987326,"MEAN_MOTION_DOT":0.00059804,"MEAN_MOTION_DDOT":0}]
